[{"OBJECT_NAME":"STARLINK-5286","OBJECT_ID":"2023-010AB","EPOCH":"2026-03-09T22:07:20.643744","MEAN_MOTION":14.98328114,"ECCENTRICITY":0.00029197,"INCLINATION":70.0004,"RA_OF_ASC_NODE":43.7492,"ARG_OF_PERICENTER":268.8951,"MEAN_ANOMALY":91.1874,"EPHEMERIS_TYPE":0,"CLASSIFICATION_TYPE":"U","NORAD_CAT_ID":55294,"ELEMENT_SET_NO":999,"REV_AT_EPOCH":17281,"BSTAR":8.547099e-6,"MEAN_MOTION_DOT":9.0e-8,"MEAN_MOTION_DDOT":0},{"OBJECT_NAME":"AAC-AIS-SAT2","OBJECT_ID":"2023-084BY","EPOCH":"2026-03-09T22:09:39.097152","MEAN_MOTION":14.84898245,"ECCENTRICITY":0.00584087,"INCLINATION":98.1313,"RA_OF_ASC_NODE":206.6441,"ARG_OF_PERICENTER":61.4701,"MEAN_ANOMALY":299.2376,"EPHEMERIS_TYPE":0,"CLASSIFICATION_TYPE":"U","NORAD_CAT_ID":56996,"ELEMENT_SET_NO":999,"REV_AT_EPOCH":13864,"BSTAR":0.00055032793,"MEAN_MOTION_DOT":4.769e-5,"MEAN_MOTION_DDOT":0}]
